{
  "type": "FeatureCollection",
  "features": [
    {
      "type": "Feature",
      "properties": {
        "norad_id": 66842,
        "name": "STARLINK-35769",
        "group": "last-30-days",
        "lat": -65.41547611299762,
        "lon": 57.46088219646579,
        "alt_km": 389.04191620266465,
        "timestamp": "2025-12-17T17:50:17.974282+00:00",
        "meta_object_name": "STARLINK-35769",
        "meta_object_id": "2025-280X",
        "meta_epoch": "2025-12-17T08:00:04.999680",
        "meta_mean_motion": 15.62747134,
        "meta_eccentricity": 0.00036691,
        "meta_inclination": 69.9993,
        "meta_ra_of_asc_node": 185.8346,
        "meta_arg_of_pericenter": 275.7493,
        "meta_mean_anomaly": 195.7338,
        "meta_ephemeris_type": 0,
        "meta_classification_type": "U",
        "meta_norad_cat_id": 66842,
        "meta_element_set_no": 999,
        "meta_rev_at_epoch": 363,
        "meta_bstar": -0.024158653,
        "meta_mean_motion_dot": -0.01926926,
        "meta_mean_motion_ddot": 0,
        "tle_line1": "1 66842U 25280X   25351.33339120 -.01926926  00000+0 -24159-1 0  9991",
        "tle_line2": "2 66842  69.9993 185.8346 0003669 275.7493 195.7338 15.62747134  3637"
      },
      "geometry": {
        "type": "Point",
        "coordinates": [
          57.46088219646579,
          -65.41547611299762
        ]
      }
    },
    {
      "type": "Feature",
      "properties": {
        "norad_id": 66843,
        "name": "STARLINK-35997",
        "group": "last-30-days",
        "lat": -67.38514488803713,
        "lon": 65.66604471590371,
        "alt_km": 389.08914877045845,
        "timestamp": "2025-12-17T17:50:17.974293+00:00",
        "meta_object_name": "STARLINK-35997",
        "meta_object_id": "2025-280Y",
        "meta_epoch": "2025-12-17T08:00:04.999680",
        "meta_mean_motion": 15.62753798,
        "meta_eccentricity": 0.00035429,
        "meta_inclination": 69.9993,
        "meta_ra_of_asc_node": 185.829,
        "meta_arg_of_pericenter": 274.3705,
        "meta_mean_anomaly": 200.9423,
        "meta_ephemeris_type": 0,
        "meta_classification_type": "U",
        "meta_norad_cat_id": 66843,
        "meta_element_set_no": 999,
        "meta_rev_at_epoch": 363,
        "meta_bstar": -0.024292467,
        "meta_mean_motion_dot": -0.01936691,
        "meta_mean_motion_ddot": 0,
        "tle_line1": "1 66843U 25280Y   25351.33339120 -.01936691  00000+0 -24292-1 0  9990",
        "tle_line2": "2 66843  69.9993 185.8290 0003542 274.3705 200.9423 15.62753798  3634"
      },
      "geometry": {
        "type": "Point",
        "coordinates": [
          65.66604471590371,
          -67.38514488803713
        ]
      }
    },
    {
      "type": "Feature",
      "properties": {
        "norad_id": 66844,
        "name": "STARLINK-36073",
        "group": "last-30-days",
        "lat": -66.45404683404533,
        "lon": 61.40241793397833,
        "alt_km": 389.02136889571284,
        "timestamp": "2025-12-17T17:50:17.974305+00:00",
        "meta_object_name": "STARLINK-36073",
        "meta_object_id": "2025-280Z",
        "meta_epoch": "2025-12-17T08:00:04.999680",
        "meta_mean_motion": 15.62746506,
        "meta_eccentricity": 0.00036678,
        "meta_inclination": 69.9991,
        "meta_ra_of_asc_node": 185.8322,
        "meta_arg_of_pericenter": 275.3507,
        "meta_mean_anomaly": 198.0493,
        "meta_ephemeris_type": 0,
        "meta_classification_type": "U",
        "meta_norad_cat_id": 66844,
        "meta_element_set_no": 999,
        "meta_rev_at_epoch": 363,
        "meta_bstar": -0.024148367,
        "meta_mean_motion_dot": -0.01926157,
        "meta_mean_motion_ddot": 0,
        "tle_line1": "1 66844U 25280Z   25351.33339120 -.01926157  00000+0 -24148-1 0  9997",
        "tle_line2": "2 66844  69.9991 185.8322 0003667 275.3507 198.0493 15.62746506  3631"
      },
      "geometry": {
        "type": "Point",
        "coordinates": [
          61.40241793397833,
          -66.45404683404533
        ]
      }
    },
    {
      "type": "Feature",
      "properties": {
        "norad_id": 66845,
        "name": "STARLINK-36068",
        "group": "last-30-days",
        "lat": -69.39221028037807,
        "lon": 80.30837239191307,
        "alt_km": 389.1998238682072,
        "timestamp": "2025-12-17T17:50:17.974316+00:00",
        "meta_object_name": "STARLINK-36068",
        "meta_object_id": "2025-280AA",
        "meta_epoch": "2025-12-17T06:00:00.999648",
        "meta_mean_motion": 15.63168486,
        "meta_eccentricity": 0.00037556,
        "meta_inclination": 69.9989,
        "meta_ra_of_asc_node": 186.0548,
        "meta_arg_of_pericenter": 271.8139,
        "meta_mean_anomaly": 100.2265,
        "meta_ephemeris_type": 0,
        "meta_classification_type": "U",
        "meta_norad_cat_id": 66845,
        "meta_element_set_no": 999,
        "meta_rev_at_epoch": 362,
        "meta_bstar": -0.025066397,
        "meta_mean_motion_dot": -0.02019997,
        "meta_mean_motion_ddot": 0,
        "tle_line1": "1 66845U 25280AA  25351.25001157 -.02019997  00000+0 -25066-1 0  9991",
        "tle_line2": "2 66845  69.9989 186.0548 0003755 271.8139 100.2265 15.63168486  3629"
      },
      "geometry": {
        "type": "Point",
        "coordinates": [
          80.30837239191307,
          -69.39221028037807
        ]
      }
    },
    {
      "type": "Feature",
      "properties": {
        "norad_id": 66846,
        "name": "STARLINK-36055",
        "group": "last-30-days",
        "lat": -68.19401032757743,
        "lon": 70.25130832678254,
        "alt_km": 389.0485716950161,
        "timestamp": "2025-12-17T17:50:17.974325+00:00",
        "meta_object_name": "STARLINK-36055",
        "meta_object_id": "2025-280AB",
        "meta_epoch": "2025-12-17T08:00:04.999680",
        "meta_mean_motion": 15.62744955,
        "meta_eccentricity": 0.00035989,
        "meta_inclination": 69.9992,
        "meta_ra_of_asc_node": 185.827,
        "meta_arg_of_pericenter": 276.1378,
        "meta_mean_anomaly": 201.0961,
        "meta_ephemeris_type": 0,
        "meta_classification_type": "U",
        "meta_norad_cat_id": 66846,
        "meta_element_set_no": 999,
        "meta_rev_at_epoch": 363,
        "meta_bstar": -0.024122663,
        "meta_mean_motion_dot": -0.01924178,
        "meta_mean_motion_ddot": 0,
        "tle_line1": "1 66846U 25280AB  25351.33339120 -.01924178  00000+0 -24123-1 0  9993",
        "tle_line2": "2 66846  69.9992 185.8270 0003598 276.1378 201.0961 15.62744955  3635"
      },
      "geometry": {
        "type": "Point",
        "coordinates": [
          70.25130832678254,
          -68.19401032757743
        ]
      }
    },
    {
      "type": "Feature",
      "properties": {
        "norad_id": 66847,
        "name": "STARLINK-36061",
        "group": "last-30-days",
        "lat": -68.86745768699252,
        "lon": 75.14775158875133,
        "alt_km": 389.2330525548068,
        "timestamp": "2025-12-17T17:50:17.974336+00:00",
        "meta_object_name": "STARLINK-36061",
        "meta_object_id": "2025-280AC",
        "meta_epoch": "2025-12-17T06:00:00.999648",
        "meta_mean_motion": 15.63165712,
        "meta_eccentricity": 0.00037052,
        "meta_inclination": 69.9986,
        "meta_ra_of_asc_node": 186.0573,
        "meta_arg_of_pericenter": 270.7822,
        "meta_mean_anomaly": 99.3443,
        "meta_ephemeris_type": 0,
        "meta_classification_type": "U",
        "meta_norad_cat_id": 66847,
        "meta_element_set_no": 999,
        "meta_rev_at_epoch": 357,
        "meta_bstar": -0.025032166,
        "meta_mean_motion_dot": -0.02017332,
        "meta_mean_motion_ddot": 0,
        "tle_line1": "1 66847U 25280AC  25351.25001157 -.02017332  00000+0 -25032-1 0  9997",
        "tle_line2": "2 66847  69.9986 186.0573 0003705 270.7822  99.3443 15.63165712  3577"
      },
      "geometry": {
        "type": "Point",
        "coordinates": [
          75.14775158875133,
          -68.86745768699252
        ]
      }
    },
    {
      "type": "Feature",
      "properties": {
        "norad_id": 66848,
        "name": "STARLINK-36091",
        "group": "last-30-days",
        "lat": -40.18970383577016,
        "lon": 26.57780264086192,
        "alt_km": 337.79450430221095,
        "timestamp": "2025-12-17T17:50:17.974346+00:00",
        "meta_object_name": "STARLINK-36091",
        "meta_object_id": "2025-281A",
        "meta_epoch": "2025-12-17T06:00:00.999648",
        "meta_mean_motion": 15.79518198,
        "meta_eccentricity": 0.00014392,
        "meta_inclination": 43.0004,
        "meta_ra_of_asc_node": 94.6197,
        "meta_arg_of_pericenter": 271.7549,
        "meta_mean_anomaly": 90.0818,
        "meta_ephemeris_type": 0,
        "meta_classification_type": "U",
        "meta_norad_cat_id": 66848,
        "meta_element_set_no": 999,
        "meta_rev_at_epoch": 212,
        "meta_bstar": -0.0074854665,
        "meta_mean_motion_dot": -0.01241974,
        "meta_mean_motion_ddot": 0,
        "tle_line1": "1 66848U 25281A   25351.25001157 -.01241974  00000+0 -74855-2 0  9997",
        "tle_line2": "2 66848  43.0004  94.6197 0001439 271.7549  90.0818 15.79518198  2128"
      },
      "geometry": {
        "type": "Point",
        "coordinates": [
          26.57780264086192,
          -40.18970383577016
        ]
      }
    }
  ]
}